OBJECT_NAME,OBJECT_ID,EPOCH,MEAN_MOTION,ECCENTRICITY,INCLINATION,RA_OF_ASC_NODE,ARG_OF_PERICENTER,MEAN_ANOMALY,EPHEMERIS_TYPE,CLASSIFICATION_TYPE,NORAD_CAT_ID,ELEMENT_SET_NO,REV_AT_EPOCH,BSTAR,MEAN_MOTION_DOT,MEAN_MOTION_DDOT
ONEWEB-0597,2022-166X,2026-06-28T13:35:38.621472,13.21827124,.00019794,87.9246,241.7234,94.7903,265.3457,0,U,54663,999,17304,-.91860685E-4,-.25E-6,0
ONEWEB-0600,2022-166Y,2026-06-28T13:09:00.743328,13.21824614,.00018243,87.9246,241.7183,98.8393,261.2948,0,U,54664,999,17301,-.27483971E-3,-.1E-5,0
ONEWEB-0601,2022-166Z,2026-06-28T14:45:52.574112,13.21824009,.00018915,87.9244,241.7209,90.4155,269.7196,0,U,54665,999,17321,-.13064694E-4,.8E-7,0
ONEWEB-0602,2022-166AA,2026-06-28T13:56:13.711200,13.21826639,.0001776,87.9243,241.7338,99.1747,260.9588,0,U,54666,999,17305,-.49527876E-4,-.7E-7,0
ONEWEB-0603,2022-166AB,2026-06-28T14:04:43.000320,13.21827043,.00019684,87.9255,241.6908,96.0584,264.0774,0,U,54667,999,17298,.97885799E-4,.53E-6,0
ONEWEB-0604,2022-166AC,2026-06-28T13:47:43.565856,13.21828218,.00020872,87.9257,241.7089,100.1399,259.9971,0,U,54668,999,17294,-.16088177E-4,.6E-7,0
ONEWEB-0605,2022-166AD,2026-06-28T13:38:04.283232,13.21827215,.0002323,87.9248,241.7225,82.9473,277.1926,0,U,54669,999,17301,-.10111369E-3,-.29E-6,0
ONEWEB-0606,2022-166AE,2026-06-28T14:09:32.399712,13.21834781,.00021862,87.9246,241.7308,102.5071,257.6308,0,U,54670,999,17307,-.51259769E-2,-.2104E-4,0
ONEWEB-0607,2022-166AF,2026-06-28T15:10:07.582944,13.21824816,.00019094,87.9252,241.6938,95.5592,264.5759,0,U,54671,999,17305,-.23648319E-3,-.85E-6,0
ONEWEB-0608,2022-166AG,2026-06-28T13:30:45.780768,13.21828357,.0002027,87.9257,241.7047,82.8205,277.3160,0,U,54672,999,17305,-.12709E-3,-.39E-6,0
ONEWEB-0610,2022-166AH,2026-06-28T14:50:44.826432,13.21825016,.00017371,87.9247,241.7068,80.4124,279.7206,0,U,54673,999,17296,-.24186562E-3,-.87E-6,0
ONEWEB-0611,2022-166AJ,2026-06-28T14:41:01.799232,13.21825257,.00021228,87.9246,241.7040,100.9132,259.2241,0,U,54674,999,17295,-.10577703E-3,-.31E-6,0
ONEWEB-0612,2022-166AK,2026-06-28T13:11:26.189088,13.21825763,.00019979,87.9259,241.7131,93.3788,266.7575,0,U,54675,999,17293,-.21590849E-3,-.76E-6,0
ONEWEB-0615,2022-166AL,2026-06-28T14:31:21.564480,13.21827623,.00020197,87.9251,241.7158,105.6677,254.4680,0,U,54676,999,17295,.10828656E-3,.58E-6,0
ONEWEB-0655,2022-166AM,2026-06-28T13:57:26.676864,13.21827627,.0001781,87.9250,241.7216,97.7216,262.4120,0,U,54677,999,17294,-.20189323E-3,-.7E-6,0
ONEWEB-0659,2022-166AN,2026-06-28T14:21:41.099040,13.21837810,.00021858,87.9245,241.7180,97.5940,262.5442,0,U,54678,999,17303,-.4488255E-2,-.1841E-4,0
ONEWEB-0685,2022-166AP,2026-06-28T14:21:31.926816,13.21847751,.00018805,87.9243,241.7098,87.6487,272.4862,0,U,54679,999,17292,.76969109E-4,.45E-6,0
ONEWEB-0712,2022-166AQ,2026-06-28T14:40:38.506656,13.16594824,.00016041,87.9093,226.5061,99.9127,260.2185,0,U,54680,999,17356,-.18006146E-3,-.56E-6,0
ONEWEB-0714,2022-166AR,2026-06-28T14:28:56.644896,13.21825160,.00017863,87.9246,241.7065,103.3976,256.7357,0,U,54681,999,17304,.43953952E-4,.31E-6,0
ONEWEB-0532,2023-004A,2026-06-28T13:47:42.097920,13.17647673,.00021782,87.9130,3.5986,85.2887,274.8493,0,U,55140,999,16908,.8578851E-5,.16E-6,0
ONEWEB-0533,2023-004B,2026-06-28T12:16:58.205856,13.12444340,.00017279,87.8949,348.4181,87.3103,272.8223,0,U,55141,999,16954,-.64986677E-3,-.221E-5,0
ONEWEB-0541,2023-004C,2026-06-28T15:02:37.150368,13.11414882,.00019919,87.8888,18.7811,90.7513,269.3843,0,U,55142,999,16744,.14003964E-2,.509E-5,0
ONEWEB-0543,2023-004D,2026-06-28T11:16:02.581248,13.18686346,.00016541,87.9170,333.2243,99.1365,260.9955,0,U,55143,999,17118,.20411387E-3,.93E-6,0
ONEWEB-0544,2023-004E,2026-06-28T11:06:19.697472,13.18687044,.00018673,87.9170,333.2252,101.6864,258.4478,0,U,55144,999,17118,.21474566E-3,.98E-6,0
ONEWEB-0560,2023-004F,2026-06-28T10:56:36.022272,13.18687924,.00017984,87.9170,333.2159,104.2892,255.8440,0,U,55145,999,17119,.23357227E-3,.105E-5,0
ONEWEB-0565,2023-004G,2026-06-28T10:46:54.726528,13.18686486,.00022343,87.9161,333.2440,101.1569,258.9814,0,U,55146,999,17118,.17767957E-3,.83E-6,0
ONEWEB-0567,2023-004H,2026-06-28T10:37:11.874720,13.18687168,.00020991,87.9169,333.2307,103.3279,256.8087,0,U,55147,999,17118,.19076013E-3,.88E-6,0
ONEWEB-0569,2023-004J,2026-06-28T10:26:03.602688,13.13470748,.00021212,87.8974,317.9811,123.7638,236.3694,0,U,55148,999,17165,-.30610171E-3,-.99E-6,0
ONEWEB-0570,2023-004K,2026-06-28T10:25:02.913600,13.18686817,.00022474,87.9169,333.2301,90.7205,269.4185,0,U,55149,999,17117,.91916799E-4,.49E-6,0
ONEWEB-0571,2023-004L,2026-06-28T15:43:07.474368,13.18685341,.0002789,87.9168,333.1856,117.2191,242.9226,0,U,55150,999,17121,.89409909E-4,.48E-6,0
