ONEWEB-0597             
1 54663U 22166X   26179.56641923 -.00000025  00000+0 -91861-4 0  9999
2 54663  87.9246 241.7234 0001979  94.7903 265.3457 13.21827124173041
ONEWEB-0600             
1 54664U 22166Y   26179.54792527 -.00000100  00000+0 -27484-3 0  9998
2 54664  87.9246 241.7183 0001824  98.8393 261.2948 13.21824614173010
ONEWEB-0601             
1 54665U 22166Z   26179.61519183  .00000008  00000+0 -13065-4 0  9999
2 54665  87.9244 241.7209 0001891  90.4155 269.7196 13.21824009173214
ONEWEB-0602             
1 54666U 22166AA  26179.58071425 -.00000007  00000+0 -49528-4 0  9991
2 54666  87.9243 241.7338 0001776  99.1747 260.9588 13.21826639173053
ONEWEB-0603             
1 54667U 22166AB  26179.58660880  .00000053  00000+0  97886-4 0  9990
2 54667  87.9255 241.6908 0001968  96.0584 264.0774 13.21827043172980
ONEWEB-0604             
1 54668U 22166AC  26179.57480979  .00000006  00000+0 -16088-4 0  9993
2 54668  87.9257 241.7089 0002087 100.1399 259.9971 13.21828218172941
ONEWEB-0605             
1 54669U 22166AD  26179.56810513 -.00000029  00000+0 -10111-3 0  9990
2 54669  87.9248 241.7225 0002323  82.9473 277.1926 13.21827215173014
ONEWEB-0606             
1 54670U 22166AE  26179.58995833 -.00002104  00000+0 -51260-2 0  9998
2 54670  87.9246 241.7308 0002186 102.5071 257.6308 13.21834781173075
ONEWEB-0607             
1 54671U 22166AF  26179.63203221 -.00000085  00000+0 -23648-3 0  9994
2 54671  87.9252 241.6938 0001909  95.5592 264.5759 13.21824816173055
ONEWEB-0608             
1 54672U 22166AG  26179.56302987 -.00000039  00000+0 -12709-3 0  9991
2 54672  87.9257 241.7047 0002027  82.8205 277.3160 13.21828357173057
ONEWEB-0610             
1 54673U 22166AH  26179.61857438 -.00000087  00000+0 -24187-3 0  9990
2 54673  87.9247 241.7068 0001737  80.4124 279.7206 13.21825016172966
ONEWEB-0611             
1 54674U 22166AJ  26179.61182638 -.00000031  00000+0 -10578-3 0  9992
2 54674  87.9246 241.7040 0002122 100.9132 259.2241 13.21825257172950
ONEWEB-0612             
1 54675U 22166AK  26179.54960867 -.00000076  00000+0 -21591-3 0  9999
2 54675  87.9259 241.7131 0001997  93.3788 266.7575 13.21825763172930
ONEWEB-0615             
1 54676U 22166AL  26179.60511070  .00000058  00000+0  10829-3 0  9995
2 54676  87.9251 241.7158 0002019 105.6677 254.4680 13.21827623172952
ONEWEB-0655             
1 54677U 22166AM  26179.58155876 -.00000070  00000+0 -20189-3 0  9997
2 54677  87.9250 241.7216 0001781  97.7216 262.4120 13.21827627172943
ONEWEB-0659             
1 54678U 22166AN  26179.59839235 -.00001841  00000+0 -44883-2 0  9990
2 54678  87.9245 241.7180 0002185  97.5940 262.5442 13.21837810173033
ONEWEB-0685             
1 54679U 22166AP  26179.59828619  .00000045  00000+0  76969-4 0  9990
2 54679  87.9243 241.7098 0001880  87.6487 272.4862 13.21847751172925
ONEWEB-0712             
1 54680U 22166AQ  26179.61155679 -.00000056  00000+0 -18006-3 0  9995
2 54680  87.9093 226.5061 0001604  99.9127 260.2185 13.16594824173560
ONEWEB-0714             
1 54681U 22166AR  26179.60343339  .00000031  00000+0  43954-4 0  9999
2 54681  87.9246 241.7065 0001786 103.3976 256.7357 13.21825160173047
ONEWEB-0532             
1 55140U 23004A   26179.57479280  .00000016  00000+0  85789-5 0  9999
2 55140  87.9130   3.5986 0002178  85.2887 274.8493 13.17647673169088
ONEWEB-0533             
1 55141U 23004B   26179.51178479 -.00000221  00000+0 -64987-3 0  9995
2 55141  87.8949 348.4181 0001727  87.3103 272.8223 13.12444340169548
ONEWEB-0541             
1 55142U 23004C   26179.62681887  .00000509  00000+0  14004-2 0  9991
2 55142  87.8888  18.7811 0001991  90.7513 269.3843 13.11414882167447
ONEWEB-0543             
1 55143U 23004D   26179.46947432  .00000093  00000+0  20411-3 0  9993
2 55143  87.9170 333.2243 0001654  99.1365 260.9955 13.18686346171181
ONEWEB-0544             
1 55144U 23004E   26179.46272798  .00000098  00000+0  21475-3 0  9996
2 55144  87.9170 333.2252 0001867 101.6864 258.4478 13.18687044171189
ONEWEB-0560             
1 55145U 23004F   26179.45597248  .00000105  00000+0  23357-3 0  9996
2 55145  87.9170 333.2159 0001798 104.2892 255.8440 13.18687924171197
ONEWEB-0565             
1 55146U 23004G   26179.44924452  .00000083  00000+0  17768-3 0  9991
2 55146  87.9161 333.2440 0002234 101.1569 258.9814 13.18686486171184
ONEWEB-0567             
1 55147U 23004H   26179.44249855  .00000088  00000+0  19076-3 0  9998
2 55147  87.9169 333.2307 0002099 103.3279 256.8087 13.18687168171183
ONEWEB-0569             
1 55148U 23004J   26179.43476392 -.00000099  00000+0 -30610-3 0  9997
2 55148  87.8974 317.9811 0002121 123.7638 236.3694 13.13470748171655
ONEWEB-0570             
1 55149U 23004K   26179.43406150  .00000049  00000+0  91917-4 0  9994
2 55149  87.9169 333.2301 0002247  90.7205 269.4185 13.18686817171170
ONEWEB-0571             
1 55150U 23004L   26179.65494762  .00000048  00000+0  89410-4 0  9990
2 55150  87.9168 333.1856 0002789 117.2191 242.9226 13.18685341171213
